[{"name":"SKYSAT-C1","line1":"1 41601U 16040C   26177.00907460  .00010408  00000+0  29478-3 0  9997","line2":"2 41601  96.9565 208.2510 0002628  39.9712 320.1726 15.36441709559225"},{"name":"LAPAN-A3","line1":"1 41603U 16040E   26177.72033473  .00003898  00000+0  12386-3 0  9997","line2":"2 41603  97.1487 173.5528 0009663 352.5383   7.5714 15.33163675556275"},{"name":"GAOFEN-3","line1":"1 41727U 16049A   26177.72751938 -.00000064  00000+0 -62282-5 0  9992","line2":"2 41727  98.4013 185.3694 0001589  97.0306 263.1064 14.42216023520028"},{"name":"SKYSAT-C4","line1":"1 41771U 16058B   26177.31326862  .00018530  00000+0  34534-3 0  9992","line2":"2 41771  96.9173 198.7035 0002047 140.2320 219.9082 15.48863181546882"},{"name":"SKYSAT-C5","line1":"1 41772U 16058C   26177.68967433  .00007468  00000+0  22498-3 0  9992","line2":"2 41772  97.0469 217.9060 0001210 220.2430 139.8725 15.34598255545208"},{"name":"SKYSAT-C2","line1":"1 41773U 16058D   26177.01908789  .00013945  00000+0  32596-3 0  9996","line2":"2 41773  97.0169 198.7820 0003924  51.2857 308.8741 15.42261578546419"},{"name":"SKYSAT-C3","line1":"1 41774U 16058E   26176.58591494  .00026959  00000+0  43484-3 0  9996","line2":"2 41774  96.9009 207.1097 0001258 117.9292 242.2090 15.52881901547411"},{"name":"ALSAT-1B","line1":"1 41785U 16059C   26177.75503582  .00000420  00000+0  73871-4 0  9999","line2":"2 41785  97.7752 186.1058 0008843 186.3587 173.7510 14.72281550521988"},{"name":"PATHFINDER 1","line1":"1 41787U 16059E   26177.47673799  .00000541  00000+0  10274-3 0  9999","line2":"2 41787  97.8167 176.3338 0028580 173.6839 186.4732 14.67672610521074"},{"name":"SCATSAT 1","line1":"1 41790U 16059H   26177.68147019  .00001100  00000+0  15096-3 0  9996","line2":"2 41790  98.1188 241.5456 0053835 216.2788 143.4769 14.79544640102992"},{"name":"GOKTURK 1A","line1":"1 41875U 16073A   26177.54866322  .00000347  00000+0  77161-4 0  9990","line2":"2 41875  98.1245  72.0761 0001428  78.2386 281.8976 14.62780494510190"},{"name":"RESOURCESAT-2A","line1":"1 41877U 16074A   26177.64275596  .00000167  00000+0  96428-4 0  9998","line2":"2 41877  98.7527 251.0702 0003231  65.6582 294.4933 14.21619414495640"},{"name":"CARTOSAT-2D","line1":"1 41948U 17008A   26177.70878608  .00006650  00000+0  31834-3 0  9997","line2":"2 41948  97.4105 236.8371 0004636 195.6503 164.4590 15.19278606519023"},{"name":"SENTINEL-2B","line1":"1 42063U 17013A   26177.71797654  .00000287  00000+0  12603-3 0  9997","line2":"2 42063  98.5692 252.3582 0001196  87.2239 272.9080 14.30820218486006"},{"name":"CARTOSAT-2E","line1":"1 42767U 17036C   26177.59473678  .00004006  00000+0  19339-3 0  9992","line2":"2 42767  97.4276 237.2426 0002209 275.4280  84.6703 15.19233949499578"},{"name":"FORMOSAT-5","line1":"1 42920U 17049A   26177.56982939  .00000134  00000+0  44899-4 0  9997","line2":"2 42920  98.2253 252.6711 0012447  58.2945 301.9462 14.50901879468033"},{"name":"SENTINEL-5P","line1":"1 42969U 17064A   26177.71748628  .00000030  00000+0  35273-4 0  9990","line2":"2 42969  98.7925 119.7811 0001035  90.3309 269.7985 14.19520411450916"},{"name":"SKYSAT-C11","line1":"1 42987U 17068A   26177.36961519  .00029711  00000+0  39203-3 0  9994","line2":"2 42987  97.4351 326.6033 0000448 123.0014 237.1285 15.58354421484676"},{"name":"SKYSAT-C10","line1":"1 42988U 17068B   26177.68131257  .00008987  00000+0  26884-3 0  9991","line2":"2 42988  97.4509 314.6220 0001166 105.1897 254.9475 15.34789181483817"},{"name":"SKYSAT-C9","line1":"1 42989U 17068C   26177.65049690  .00013182  00000+0  31290-3 0  9998","line2":"2 42989  97.4430 315.6165 0009559 103.5554 256.6758 15.41785095484212"},{"name":"SKYSAT-C8","line1":"1 42990U 17068D   26177.63817191  .00010318  00000+0  28591-3 0  9995","line2":"2 42990  97.4527 314.4144 0001351  94.8903 265.2496 15.37151628483765"},{"name":"SKYSAT-C7","line1":"1 42991U 17068E   26177.63208750  .00010317  00000+0  28611-3 0  9993","line2":"2 42991  97.4535 315.3982 0007064  79.1709 281.0330 15.37103897483827"},{"name":"SKYSAT-C6","line1":"1 42992U 17068F   26177.34329537  .00010269  00000+0  31332-3 0  9999","line2":"2 42992  97.4571 315.0399 0005173 125.8048 234.3676 15.34113077483722"},{"name":"CARTOSAT-2F","line1":"1 43111U 18004A   26177.62702248  .00007235  00000+0  34602-3 0  9991","line2":"2 43111  97.4792 237.1698 0001584 168.8538 191.2732 15.19289882468762"},{"name":"GAOFEN-1 02","line1":"1 43259U 18031A   26177.71872707  .00000696  00000+0  10751-3 0  9995","line2":"2 43259  98.0527 240.2192 0002969   7.1094 353.0157 14.76420340444101"},{"name":"GAOFEN-1 03","line1":"1 43260U 18031B   26177.76453515  .00000109  00000+0  23027-4 0  9994","line2":"2 43260  98.0515 240.1223 0003614  59.8428 300.3139 14.76437111444106"},{"name":"GAOFEN-1 04","line1":"1 43262U 18031D   26177.74034321  .00001207  00000+0  18089-3 0  9995","line2":"2 43262  98.0528 240.2900 0002025  65.4233 294.7188 14.76447956444093"},{"name":"SENTINEL-3B","line1":"1 43437U 18039A   26177.72737676  .00000092  00000+0  55871-4 0  9990","line2":"2 43437  98.6246 245.1228 0000756 107.4193 252.7070 14.26737250425488"},{"name":"GAOFEN-5 01","line1":"1 43461U 18043A   26177.65242753  .00000322  00000+0  76310-4 0  9998","line2":"2 43461  98.4574 149.4376 0002905  67.0405 293.1101 14.60611596433072"},{"name":"GAOFEN-6","line1":"1 43484U 18048A   26176.81301529  .00000286  00000+0  48573-4 0  9991","line2":"2 43484  98.0567 239.4730 0011702 138.2343 221.9762 14.76423510434668"}]